53397,STARLINK-4515,2022,95.44,260.0,+,53.22,Active,1,LEO,USA,USA,Commercial,Communications,Falcon,1 53397U 22097K   25267.10389030  .00000731  00000+0  63998-4 0  9992,2 53397  53.2168 151.9532 0001265  87.3423 272.7714 15.08834663173365,15.08834663,0.0001265,LEO
53398,STARLINK-4512,2022,95.44,260.0,+,53.22,Active,1,LEO,USA,USA,Commercial,Communications,Falcon,1 53398U 22097L   25267.08548995  .00000179  00000+0  29356-4 0  9993,2 53398  53.2170 152.0358 0001504  85.7067 274.4097 15.08837638173367,15.08837638,0.0001504,LEO
53399,STARLINK-4528,2022,95.44,260.0,+,53.22,Active,1,LEO,USA,USA,Commercial,Communications,Falcon,1 53399U 22097M   25266.96404401 -.00000427  00000+0 -87091-5 0  9992,2 53399  53.2179 152.5791 0001468  97.4404 262.6755 15.08840499173344,15.08840499,0.0001468,LEO
53400,STARLINK-4520,2022,95.44,260.0,+,53.22,Active,1,LEO,USA,USA,Commercial,Communications,Falcon,1 53400U 22097N   25267.00821613 -.00000197  00000+0  56911-5 0  9999,2 53400  53.2163 152.3832 0001226  82.9280 277.1851 15.08838353173352,15.08838353,0.0001226,LEO
53401,STARLINK-4525,2022,95.44,260.0,+,53.22,Active,1,LEO,USA,USA,Commercial,Communications,Falcon,1 53401U 22097P   25267.08916786 -.00000788  00000+0 -31454-4 0  9995,2 53401  53.2162 152.0162 0001358  93.7448 266.3699 15.08841220173365,15.0884122,0.0001358,LEO
53402,STARLINK-4499,2022,95.44,260.0,+,53.22,Active,1,LEO,USA,USA,Commercial,Communications,Falcon,1 53402U 22097Q   25267.00453333 -.00000330  00000+0 -26423-5 0  9996,2 53402  53.2165 152.3998 0001333  80.0561 280.0582 15.08838614173353,15.08838614,0.0001333,LEO
53403,STARLINK-4507,2022,95.44,260.0,+,53.22,Active,1,LEO,USA,USA,Commercial,Communications,Falcon,1 53403U 22097R   25267.11590670  .00002602  00000+0  18144-3 0  9996,2 53403  53.2165 152.2468 0001145  92.1212 267.9911 15.08859391173369,15.08859391,0.0001145,LEO
53404,STARLINK-4509,2022,95.44,260.0,+,53.22,Active,1,LEO,USA,USA,Commercial,Communications,Falcon,1 53404U 22097S   25266.92175765 -.00000304  00000+0 -99641-6 0  9992,2 53404  53.2165 142.7035 0001313  84.0104 276.1038 15.08840468173470,15.08840468,0.0001313,LEO
53405,STARLINK-4510,2022,95.44,260.0,+,53.22,Active,1,LEO,USA,USA,Commercial,Communications,Falcon,1 53405U 22097T   25267.00085206 -.00000060  00000+0  14349-4 0  9991,2 53405  53.2160 152.4167 0001278  90.1695 269.9444 15.08832107173352,15.08832107,0.0001278,LEO
53406,STARLINK-4533,2022,95.44,260.0,+,53.22,Active,1,LEO,USA,USA,Commercial,Communications,Falcon,1 53406U 22097U   25266.97600848 -.00000529  00000+0 -15122-4 0  9993,2 53406  53.2172 142.5258 0001383  95.7539 264.3611 15.08833456173489,15.08833456,0.0001383,LEO
53407,STARLINK-4537,2022,93.83,260.0,P,53.21,Active,1,LEO,USA,USA,Commercial,Communications,Falcon,1 53407U 22097V   25267.33336806  .01555082  00000+0  42534-1 0  9997,2 53407  53.2078 128.3699 0001264 116.0207 334.0886 15.33976483  5820,15.33976483,0.0001264,LEO
53408,STARLINK-4491,2022,95.44,260.0,+,53.22,Active,1,LEO,USA,USA,Commercial,Communications,Falcon,1 53408U 22097W   25267.05328659  .00000272  00000+0  35185-4 0  9996,2 53408  53.2157 142.1849 0001400  85.7221 274.3931 15.08841179173491,15.08841179,0.00014,LEO
53409,STARLINK-4490,2022,95.44,260.0,+,53.22,Active,1,LEO,USA,USA,Commercial,Communications,Falcon,1 53409U 22097X   25266.84814138 -.00002126  00000+0 -11553-3 0  9999,2 53409  53.2162 133.2941 0001042  94.2424 265.8687 15.08844277173602,15.08844277,0.0001042,LEO
53410,STARLINK-4492,2022,95.44,260.0,+,53.22,Active,1,LEO,USA,USA,Commercial,Communications,Falcon,1 53410U 22097Y   25267.04961121  .00001165  00000+0  91265-4 0  9998,2 53410  53.2160 142.1977 0001016  80.0128 280.0979 15.08838997173497,15.08838997,0.0001016,LEO
53411,STARLINK-4497,2022,95.44,260.0,+,53.22,Active,1,LEO,USA,USA,Commercial,Communications,Falcon,1 53411U 22097Z   25267.05696697  .00000166  00000+0  28543-4 0  9992,2 53411  53.2164 142.1649 0001272  84.2906 275.8231 15.08842026173493,15.08842026,0.0001272,LEO
53412,STARLINK-4496,2022,95.44,260.0,+,53.22,Active,1,LEO,USA,USA,Commercial,Communications,Falcon,1 53412U 22097AA  25266.97233593  .00004107  00000+0  27588-3 0  9991,2 53412  53.2159 142.5451 0001234  88.8968 271.2166 15.08848929173483,15.08848929,0.0001234,LEO
