[{"OBJECT_NAME":"STARLINK-4515","OBJECT_ID":"2022-097K","EPOCH":"2025-09-24T02:29:36.121920","MEAN_MOTION":15.08834663,"ECCENTRICITY":0.00012655,"INCLINATION":53.2168,"RA_OF_ASC_NODE":151.9532,"ARG_OF_PERICENTER":87.3423,"MEAN_ANOMALY":272.7714,"EPHEMERIS_TYPE":0,"CLASSIFICATION_TYPE":"U","NORAD_CAT_ID":53397,"ELEMENT_SET_NO":999,"REV_AT_EPOCH":17336,"BSTAR":6.3997808e-5,"MEAN_MOTION_DOT":7.31e-6,"MEAN_MOTION_DDOT":0},{"OBJECT_NAME":"STARLINK-4512","OBJECT_ID":"2022-097L","EPOCH":"2025-09-24T02:03:06.331680","MEAN_MOTION":15.08837638,"ECCENTRICITY":0.00015046,"INCLINATION":53.217,"RA_OF_ASC_NODE":152.0358,"ARG_OF_PERICENTER":85.7067,"MEAN_ANOMALY":274.4097,"EPHEMERIS_TYPE":0,"CLASSIFICATION_TYPE":"U","NORAD_CAT_ID":53398,"ELEMENT_SET_NO":999,"REV_AT_EPOCH":17336,"BSTAR":2.935595e-5,"MEAN_MOTION_DOT":1.79e-6,"MEAN_MOTION_DDOT":0},{"OBJECT_NAME":"STARLINK-4528","OBJECT_ID":"2022-097M","EPOCH":"2025-09-23T23:08:13.402464","MEAN_MOTION":15.08840499,"ECCENTRICITY":0.00014682,"INCLINATION":53.2179,"RA_OF_ASC_NODE":152.5791,"ARG_OF_PERICENTER":97.4404,"MEAN_ANOMALY":262.6755,"EPHEMERIS_TYPE":0,"CLASSIFICATION_TYPE":"U","NORAD_CAT_ID":53399,"ELEMENT_SET_NO":999,"REV_AT_EPOCH":17334,"BSTAR":-8.709064e-6,"MEAN_MOTION_DOT":-4.27e-6,"MEAN_MOTION_DDOT":0},{"OBJECT_NAME":"STARLINK-4520","OBJECT_ID":"2022-097N","EPOCH":"2025-09-24T00:11:49.873632","MEAN_MOTION":15.08838353,"ECCENTRICITY":0.00012266,"INCLINATION":53.2163,"RA_OF_ASC_NODE":152.3832,"ARG_OF_PERICENTER":82.928,"MEAN_ANOMALY":277.1851,"EPHEMERIS_TYPE":0,"CLASSIFICATION_TYPE":"U","NORAD_CAT_ID":53400,"ELEMENT_SET_NO":999,"REV_AT_EPOCH":17335,"BSTAR":5.691096e-6,"MEAN_MOTION_DOT":-1.97e-6,"MEAN_MOTION_DDOT":0},{"OBJECT_NAME":"STARLINK-4525","OBJECT_ID":"2022-097P","EPOCH":"2025-09-24T02:08:24.103104","MEAN_MOTION":15.0884122,"ECCENTRICITY":0.00013585,"INCLINATION":53.2162,"RA_OF_ASC_NODE":152.0162,"ARG_OF_PERICENTER":93.7448,"MEAN_ANOMALY":266.3699,"EPHEMERIS_TYPE":0,"CLASSIFICATION_TYPE":"U","NORAD_CAT_ID":53401,"ELEMENT_SET_NO":999,"REV_AT_EPOCH":17336,"BSTAR":-3.1453675e-5,"MEAN_MOTION_DOT":-7.88e-6,"MEAN_MOTION_DDOT":0},{"OBJECT_NAME":"STARLINK-4499","OBJECT_ID":"2022-097Q","EPOCH":"2025-09-24T00:06:31.679712","MEAN_MOTION":15.08838614,"ECCENTRICITY":0.00013331,"INCLINATION":53.2165,"RA_OF_ASC_NODE":152.3998,"ARG_OF_PERICENTER":80.0561,"MEAN_ANOMALY":280.0582,"EPHEMERIS_TYPE":0,"CLASSIFICATION_TYPE":"U","NORAD_CAT_ID":53402,"ELEMENT_SET_NO":999,"REV_AT_EPOCH":17335,"BSTAR":-2.642257e-6,"MEAN_MOTION_DOT":-3.3e-6,"MEAN_MOTION_DDOT":0},{"OBJECT_NAME":"STARLINK-4507","OBJECT_ID":"2022-097R","EPOCH":"2025-09-24T02:46:54.338880","MEAN_MOTION":15.08859391,"ECCENTRICITY":0.00011454,"INCLINATION":53.2165,"RA_OF_ASC_NODE":152.2468,"ARG_OF_PERICENTER":92.1212,"MEAN_ANOMALY":267.9911,"EPHEMERIS_TYPE":0,"CLASSIFICATION_TYPE":"U","NORAD_CAT_ID":53403,"ELEMENT_SET_NO":999,"REV_AT_EPOCH":17336,"BSTAR":0.00018143796,"MEAN_MOTION_DOT":2.602e-5,"MEAN_MOTION_DDOT":0},{"OBJECT_NAME":"STARLINK-4509","OBJECT_ID":"2022-097S","EPOCH":"2025-09-23T22:07:19.860960","MEAN_MOTION":15.08840468,"ECCENTRICITY":0.00013136,"INCLINATION":53.2165,"RA_OF_ASC_NODE":142.7035,"ARG_OF_PERICENTER":84.0104,"MEAN_ANOMALY":276.1038,"EPHEMERIS_TYPE":0,"CLASSIFICATION_TYPE":"U","NORAD_CAT_ID":53404,"ELEMENT_SET_NO":999,"REV_AT_EPOCH":17347,"BSTAR":-9.9641e-7,"MEAN_MOTION_DOT":-3.04e-6,"MEAN_MOTION_DDOT":0},{"OBJECT_NAME":"STARLINK-4510","OBJECT_ID":"2022-097T","EPOCH":"2025-09-24T00:01:13.617984","MEAN_MOTION":15.08832107,"ECCENTRICITY":0.00012786,"INCLINATION":53.216,"RA_OF_ASC_NODE":152.4167,"ARG_OF_PERICENTER":90.1695,"MEAN_ANOMALY":269.9444,"EPHEMERIS_TYPE":0,"CLASSIFICATION_TYPE":"U","NORAD_CAT_ID":53405,"ELEMENT_SET_NO":999,"REV_AT_EPOCH":17335,"BSTAR":1.4348525e-5,"MEAN_MOTION_DOT":-6.0e-7,"MEAN_MOTION_DDOT":0},{"OBJECT_NAME":"STARLINK-4533","OBJECT_ID":"2022-097U","EPOCH":"2025-09-23T23:25:27.132672","MEAN_MOTION":15.08833456,"ECCENTRICITY":0.00013832,"INCLINATION":53.2172,"RA_OF_ASC_NODE":142.5258,"ARG_OF_PERICENTER":95.7539,"MEAN_ANOMALY":264.3611,"EPHEMERIS_TYPE":0,"CLASSIFICATION_TYPE":"U","NORAD_CAT_ID":53406,"ELEMENT_SET_NO":999,"REV_AT_EPOCH":17348,"BSTAR":-1.5121768e-5,"MEAN_MOTION_DOT":-5.29e-6,"MEAN_MOTION_DDOT":0},{"OBJECT_NAME":"STARLINK-4537","OBJECT_ID":"2022-097V","EPOCH":"2025-09-24T08:00:03.000384","MEAN_MOTION":15.33976483,"ECCENTRICITY":0.00012646,"INCLINATION":53.2078,"RA_OF_ASC_NODE":128.3699,"ARG_OF_PERICENTER":116.0207,"MEAN_ANOMALY":334.0886,"EPHEMERIS_TYPE":0,"CLASSIFICATION_TYPE":"U","NORAD_CAT_ID":53407,"ELEMENT_SET_NO":999,"REV_AT_EPOCH":582,"BSTAR":0.042533601,"MEAN_MOTION_DOT":0.01555082,"MEAN_MOTION_DDOT":0},{"OBJECT_NAME":"STARLINK-4491","OBJECT_ID":"2022-097W","EPOCH":"2025-09-24T01:16:43.961376","MEAN_MOTION":15.08841179,"ECCENTRICITY":0.00014004,"INCLINATION":53.2157,"RA_OF_ASC_NODE":142.1849,"ARG_OF_PERICENTER":85.7221,"MEAN_ANOMALY":274.3931,"EPHEMERIS_TYPE":0,"CLASSIFICATION_TYPE":"U","NORAD_CAT_ID":53408,"ELEMENT_SET_NO":999,"REV_AT_EPOCH":17349,"BSTAR":3.5184989e-5,"MEAN_MOTION_DOT":2.72e-6,"MEAN_MOTION_DDOT":0},{"OBJECT_NAME":"STARLINK-4490","OBJECT_ID":"2022-097X","EPOCH":"2025-09-23T20:21:19.415232","MEAN_MOTION":15.08844277,"ECCENTRICITY":0.00010422,"INCLINATION":53.2162,"RA_OF_ASC_NODE":133.2941,"ARG_OF_PERICENTER":94.2424,"MEAN_ANOMALY":265.8687,"EPHEMERIS_TYPE":0,"CLASSIFICATION_TYPE":"U","NORAD_CAT_ID":53409,"ELEMENT_SET_NO":999,"REV_AT_EPOCH":17360,"BSTAR":-0.00011553022,"MEAN_MOTION_DOT":-2.126e-5,"MEAN_MOTION_DDOT":0},{"OBJECT_NAME":"STARLINK-4492","OBJECT_ID":"2022-097Y","EPOCH":"2025-09-24T01:11:26.408544","MEAN_MOTION":15.08838997,"ECCENTRICITY":0.00010162,"INCLINATION":53.216,"RA_OF_ASC_NODE":142.1977,"ARG_OF_PERICENTER":80.0128,"MEAN_ANOMALY":280.0979,"EPHEMERIS_TYPE":0,"CLASSIFICATION_TYPE":"U","NORAD_CAT_ID":53410,"ELEMENT_SET_NO":999,"REV_AT_EPOCH":17349,"BSTAR":9.1264837e-5,"MEAN_MOTION_DOT":1.165e-5,"MEAN_MOTION_DDOT":0},{"OBJECT_NAME":"STARLINK-4497","OBJECT_ID":"2022-097Z","EPOCH":"2025-09-24T01:22:01.946208","MEAN_MOTION":15.08842026,"ECCENTRICITY":0.00012725,"INCLINATION":53.2164,"RA_OF_ASC_NODE":142.1649,"ARG_OF_PERICENTER":84.2906,"MEAN_ANOMALY":275.8231,"EPHEMERIS_TYPE":0,"CLASSIFICATION_TYPE":"U","NORAD_CAT_ID":53411,"ELEMENT_SET_NO":999,"REV_AT_EPOCH":17349,"BSTAR":2.8542867e-5,"MEAN_MOTION_DOT":1.66e-6,"MEAN_MOTION_DDOT":0},{"OBJECT_NAME":"STARLINK-4496","OBJECT_ID":"2022-097AA","EPOCH":"2025-09-23T23:20:09.824352","MEAN_MOTION":15.08848929,"ECCENTRICITY":0.00012342,"INCLINATION":53.2159,"RA_OF_ASC_NODE":142.5451,"ARG_OF_PERICENTER":88.8968,"MEAN_ANOMALY":271.2166,"EPHEMERIS_TYPE":0,"CLASSIFICATION_TYPE":"U","NORAD_CAT_ID":53412,"ELEMENT_SET_NO":999,"REV_AT_EPOCH":17348,"BSTAR":0.00027588124,"MEAN_MOTION_DOT":4.107e-5,"MEAN_MOTION_DDOT":0}]
